CS1                     
1 49261U 21088B   26068.75173904  .00015722  00000+0  51176-3 0  9998
2 49261  97.3882 132.1684 0014129  78.0335 282.2490 15.31848439245182
STARLINK-30966          
1 58454U 23183T   26068.28514043  .00001471  00000+0  62947-4 0  9996
2 58454  43.0015  43.7959 0001602 275.5141  84.5528 15.27588736126678
